GLOBALSTAR M082         
1 38042U 11080C   25343.00044572 -.00000087  00000+0  94448-4 0  9994
2 38042  52.0052 193.4135 0000851  98.0859  74.9902 12.62266096645570
GLOBALSTAR M090         
1 38044U 11080E   25342.83370870 -.00000091  00000+0  70149-4 0  9996
2 38044  52.0099 187.8158 0000895  80.3989 293.5664 12.62265326645671
GLOBALSTAR M086         
1 38045U 11080F   25342.96651759 -.00000087  00000+0  93133-4 0  9992
2 38045  51.9873 187.6510 0001316  31.0679 116.1046 12.62280943645630
GLOBALSTAR M097         
1 39072U 13005A   25342.72466943 -.00000109  00000+0 -31067-4 0  9999
2 39072  52.0041 103.1187 0000671 107.2093 252.8847 12.62267805592856
GLOBALSTAR M093         
1 39073U 13005B   25342.69859287 -.00000094  00000+0  55639-4 0  9996
2 39073  52.0104  96.4735 0000431 117.2882 242.8029 12.62270997592803
