<?xml version="1.0" encoding="UTF-8"?>
<ndm xmlns:xsi="http://www.w3.org/2001/XMLSchema-instance" xsi:noNamespaceSchemaLocation="https://sanaregistry.org/r/ndmxml_unqualified/ndmxml-2.0.0-master-2.0.xsd">
<omm id="CCSDS_OMM_VERS" version="2.0">
<header><CREATION_DATE/><ORIGINATOR/></header><body><segment><metadata><OBJECT_NAME>GLOBALSTAR M082</OBJECT_NAME><OBJECT_ID>2011-080C</OBJECT_ID><CENTER_NAME>EARTH</CENTER_NAME><REF_FRAME>TEME</REF_FRAME><TIME_SYSTEM>UTC</TIME_SYSTEM><MEAN_ELEMENT_THEORY>SGP4</MEAN_ELEMENT_THEORY></metadata><data><meanElements><EPOCH>2025-12-09T00:00:38.510208</EPOCH><MEAN_MOTION>12.62266096</MEAN_MOTION><ECCENTRICITY>.00008508</ECCENTRICITY><INCLINATION>52.0052</INCLINATION><RA_OF_ASC_NODE>193.4135</RA_OF_ASC_NODE><ARG_OF_PERICENTER>98.0859</ARG_OF_PERICENTER><MEAN_ANOMALY>74.9902</MEAN_ANOMALY></meanElements><tleParameters><EPHEMERIS_TYPE>0</EPHEMERIS_TYPE><CLASSIFICATION_TYPE>U</CLASSIFICATION_TYPE><NORAD_CAT_ID>38042</NORAD_CAT_ID><ELEMENT_SET_NO>999</ELEMENT_SET_NO><REV_AT_EPOCH>64557</REV_AT_EPOCH><BSTAR>.94448377E-4</BSTAR><MEAN_MOTION_DOT>-.87E-6</MEAN_MOTION_DOT><MEAN_MOTION_DDOT>0</MEAN_MOTION_DDOT></tleParameters></data></segment></body></omm>
<omm id="CCSDS_OMM_VERS" version="2.0">
<header><CREATION_DATE/><ORIGINATOR/></header><body><segment><metadata><OBJECT_NAME>GLOBALSTAR M090</OBJECT_NAME><OBJECT_ID>2011-080E</OBJECT_ID><CENTER_NAME>EARTH</CENTER_NAME><REF_FRAME>TEME</REF_FRAME><TIME_SYSTEM>UTC</TIME_SYSTEM><MEAN_ELEMENT_THEORY>SGP4</MEAN_ELEMENT_THEORY></metadata><data><meanElements><EPOCH>2025-12-08T20:00:32.431680</EPOCH><MEAN_MOTION>12.62265326</MEAN_MOTION><ECCENTRICITY>.0000895</ECCENTRICITY><INCLINATION>52.0099</INCLINATION><RA_OF_ASC_NODE>187.8158</RA_OF_ASC_NODE><ARG_OF_PERICENTER>80.3989</ARG_OF_PERICENTER><MEAN_ANOMALY>293.5664</MEAN_ANOMALY></meanElements><tleParameters><EPHEMERIS_TYPE>0</EPHEMERIS_TYPE><CLASSIFICATION_TYPE>U</CLASSIFICATION_TYPE><NORAD_CAT_ID>38044</NORAD_CAT_ID><ELEMENT_SET_NO>999</ELEMENT_SET_NO><REV_AT_EPOCH>64567</REV_AT_EPOCH><BSTAR>.70148976E-4</BSTAR><MEAN_MOTION_DOT>-.91E-6</MEAN_MOTION_DOT><MEAN_MOTION_DDOT>0</MEAN_MOTION_DDOT></tleParameters></data></segment></body></omm>
<omm id="CCSDS_OMM_VERS" version="2.0">
<header><CREATION_DATE/><ORIGINATOR/></header><body><segment><metadata><OBJECT_NAME>GLOBALSTAR M086</OBJECT_NAME><OBJECT_ID>2011-080F</OBJECT_ID><CENTER_NAME>EARTH</CENTER_NAME><REF_FRAME>TEME</REF_FRAME><TIME_SYSTEM>UTC</TIME_SYSTEM><MEAN_ELEMENT_THEORY>SGP4</MEAN_ELEMENT_THEORY></metadata><data><meanElements><EPOCH>2025-12-08T23:11:47.119776</EPOCH><MEAN_MOTION>12.62280943</MEAN_MOTION><ECCENTRICITY>.00013168</ECCENTRICITY><INCLINATION>51.9873</INCLINATION><RA_OF_ASC_NODE>187.6510</RA_OF_ASC_NODE><ARG_OF_PERICENTER>31.0679</ARG_OF_PERICENTER><MEAN_ANOMALY>116.1046</MEAN_ANOMALY></meanElements><tleParameters><EPHEMERIS_TYPE>0</EPHEMERIS_TYPE><CLASSIFICATION_TYPE>U</CLASSIFICATION_TYPE><NORAD_CAT_ID>38045</NORAD_CAT_ID><ELEMENT_SET_NO>999</ELEMENT_SET_NO><REV_AT_EPOCH>64563</REV_AT_EPOCH><BSTAR>.93133128E-4</BSTAR><MEAN_MOTION_DOT>-.87E-6</MEAN_MOTION_DOT><MEAN_MOTION_DDOT>0</MEAN_MOTION_DDOT></tleParameters></data></segment></body></omm>
<omm id="CCSDS_OMM_VERS" version="2.0">
<header><CREATION_DATE/><ORIGINATOR/></header><body><segment><metadata><OBJECT_NAME>GLOBALSTAR M097</OBJECT_NAME><OBJECT_ID>2013-005A</OBJECT_ID><CENTER_NAME>EARTH</CENTER_NAME><REF_FRAME>TEME</REF_FRAME><TIME_SYSTEM>UTC</TIME_SYSTEM><MEAN_ELEMENT_THEORY>SGP4</MEAN_ELEMENT_THEORY></metadata><data><meanElements><EPOCH>2025-12-08T17:23:31.438752</EPOCH><MEAN_MOTION>12.62267805</MEAN_MOTION><ECCENTRICITY>.00006714</ECCENTRICITY><INCLINATION>52.0041</INCLINATION><RA_OF_ASC_NODE>103.1187</RA_OF_ASC_NODE><ARG_OF_PERICENTER>107.2093</ARG_OF_PERICENTER><MEAN_ANOMALY>252.8847</MEAN_ANOMALY></meanElements><tleParameters><EPHEMERIS_TYPE>0</EPHEMERIS_TYPE><CLASSIFICATION_TYPE>U</CLASSIFICATION_TYPE><NORAD_CAT_ID>39072</NORAD_CAT_ID><ELEMENT_SET_NO>999</ELEMENT_SET_NO><REV_AT_EPOCH>59285</REV_AT_EPOCH><BSTAR>-.31066672E-4</BSTAR><MEAN_MOTION_DOT>-.109E-5</MEAN_MOTION_DOT><MEAN_MOTION_DDOT>0</MEAN_MOTION_DDOT></tleParameters></data></segment></body></omm>
<omm id="CCSDS_OMM_VERS" version="2.0">
<header><CREATION_DATE/><ORIGINATOR/></header><body><segment><metadata><OBJECT_NAME>GLOBALSTAR M093</OBJECT_NAME><OBJECT_ID>2013-005B</OBJECT_ID><CENTER_NAME>EARTH</CENTER_NAME><REF_FRAME>TEME</REF_FRAME><TIME_SYSTEM>UTC</TIME_SYSTEM><MEAN_ELEMENT_THEORY>SGP4</MEAN_ELEMENT_THEORY></metadata><data><meanElements><EPOCH>2025-12-08T16:45:58.423968</EPOCH><MEAN_MOTION>12.62270997</MEAN_MOTION><ECCENTRICITY>.00004311</ECCENTRICITY><INCLINATION>52.0104</INCLINATION><RA_OF_ASC_NODE>96.4735</RA_OF_ASC_NODE><ARG_OF_PERICENTER>117.2882</ARG_OF_PERICENTER><MEAN_ANOMALY>242.8029</MEAN_ANOMALY></meanElements><tleParameters><EPHEMERIS_TYPE>0</EPHEMERIS_TYPE><CLASSIFICATION_TYPE>U</CLASSIFICATION_TYPE><NORAD_CAT_ID>39073</NORAD_CAT_ID><ELEMENT_SET_NO>999</ELEMENT_SET_NO><REV_AT_EPOCH>59280</REV_AT_EPOCH><BSTAR>.55638952E-4</BSTAR><MEAN_MOTION_DOT>-.94E-6</MEAN_MOTION_DOT><MEAN_MOTION_DDOT>0</MEAN_MOTION_DDOT></tleParameters></data></segment></body></omm>

</ndm>
